FENGYUN 1C DEB          
1 29794U 99025CL  17346.52739687  .00000366  00000-0  22637-3 0  9992
2 29794  98.2008  13.8071 0167785  91.7642  66.9359 14.03546168558221
